CCSDS_OMM_VERS = 2.0
CREATION_DATE  = 
ORIGINATOR     = 

OBJECT_NAME    = UNKNOWN
OBJECT_ID      = 
CENTER_NAME    = EARTH
REF_FRAME      = TEME
TIME_SYSTEM    = UTC
MEAN_ELEMENT_THEORY = SGP/SGP4

EPOCH          = 2026-01-14T14:07:47.732160
MEAN_MOTION    = 14.82482534
ECCENTRICITY   = .0011051
INCLINATION    = 98.3973
RA_OF_ASC_NODE = 245.9171
ARG_OF_PERICENTER = 32.6793
MEAN_ANOMALY   = 327.5101

EPHEMERIS_TYPE = 0
CLASSIFICATION_TYPE = U
NORAD_CAT_ID   = 82381
ELEMENT_SET_NO = 999
REV_AT_EPOCH   = 51567
BSTAR          = .13757E-2
MEAN_MOTION_DOT = .11009E-3
MEAN_MOTION_DDOT = 0

CCSDS_OMM_VERS = 2.0
CREATION_DATE  = 
ORIGINATOR     = 

OBJECT_NAME    = UNKNOWN
OBJECT_ID      = 
CENTER_NAME    = EARTH
REF_FRAME      = TEME
TIME_SYSTEM    = UTC
MEAN_ELEMENT_THEORY = SGP/SGP4

EPOCH          = 2026-01-15T07:25:29.141184
MEAN_MOTION    = 15.04022255
ECCENTRICITY   = .0008943
INCLINATION    = 86.6663
RA_OF_ASC_NODE = 141.1052
ARG_OF_PERICENTER = 51.3639
MEAN_ANOMALY   = 308.8395

EPHEMERIS_TYPE = 0
CLASSIFICATION_TYPE = U
NORAD_CAT_ID   = 82402
ELEMENT_SET_NO = 999
REV_AT_EPOCH   = 45951
BSTAR          = .25261E-3
MEAN_MOTION_DOT = .3524E-4
MEAN_MOTION_DDOT = 0

CCSDS_OMM_VERS = 2.0
CREATION_DATE  = 
ORIGINATOR     = 

OBJECT_NAME    = UNKNOWN
OBJECT_ID      = 
CENTER_NAME    = EARTH
REF_FRAME      = TEME
TIME_SYSTEM    = UTC
MEAN_ELEMENT_THEORY = SGP/SGP4

EPOCH          = 2025-12-31T02:38:24.573696
MEAN_MOTION    = 14.58640510
ECCENTRICITY   = .0054207
INCLINATION    = 74.0071
RA_OF_ASC_NODE = 305.5467
ARG_OF_PERICENTER = 105.8778
MEAN_ANOMALY   = 254.8371

EPHEMERIS_TYPE = 0
CLASSIFICATION_TYPE = U
NORAD_CAT_ID   = 82432
ELEMENT_SET_NO = 999
REV_AT_EPOCH   = 48558
BSTAR          = .85314E-3
MEAN_MOTION_DOT = .4028E-4
MEAN_MOTION_DDOT = 0

CCSDS_OMM_VERS = 2.0
CREATION_DATE  = 
ORIGINATOR     = 

OBJECT_NAME    = UNKNOWN
OBJECT_ID      = 
CENTER_NAME    = EARTH
REF_FRAME      = TEME
TIME_SYSTEM    = UTC
MEAN_ELEMENT_THEORY = SGP/SGP4

EPOCH          = 2026-01-15T11:41:36.357504
MEAN_MOTION    = 15.04193335
ECCENTRICITY   = .0009928
INCLINATION    = 85.8722
RA_OF_ASC_NODE = 181.2942
ARG_OF_PERICENTER = 132.9104
MEAN_ANOMALY   = 227.2965

EPHEMERIS_TYPE = 0
CLASSIFICATION_TYPE = U
NORAD_CAT_ID   = 82448
ELEMENT_SET_NO = 999
REV_AT_EPOCH   = 44211
BSTAR          = .25492E-3
MEAN_MOTION_DOT = .3574E-4
MEAN_MOTION_DDOT = 0

CCSDS_OMM_VERS = 2.0
CREATION_DATE  = 
ORIGINATOR     = 

OBJECT_NAME    = UNKNOWN
OBJECT_ID      = 
CENTER_NAME    = EARTH
REF_FRAME      = TEME
TIME_SYSTEM    = UTC
MEAN_ELEMENT_THEORY = SGP/SGP4

EPOCH          = 2026-01-14T08:35:02.547168
MEAN_MOTION    = 12.39704445
ECCENTRICITY   = .0093392
INCLINATION    = 102.1826
RA_OF_ASC_NODE = 335.7082
ARG_OF_PERICENTER = 146.7951
MEAN_ANOMALY   = 213.9018

EPHEMERIS_TYPE = 0
CLASSIFICATION_TYPE = U
NORAD_CAT_ID   = 82453
ELEMENT_SET_NO = 999
REV_AT_EPOCH   = 55010
BSTAR          = .27E-3
MEAN_MOTION_DOT = -.9E-7
MEAN_MOTION_DDOT = 0

CCSDS_OMM_VERS = 2.0
CREATION_DATE  = 
ORIGINATOR     = 

OBJECT_NAME    = UNKNOWN
OBJECT_ID      = 
CENTER_NAME    = EARTH
REF_FRAME      = TEME
TIME_SYSTEM    = UTC
MEAN_ELEMENT_THEORY = SGP/SGP4

EPOCH          = 2026-01-05T00:52:32.132928
MEAN_MOTION    = 14.23105341
ECCENTRICITY   = .0054053
INCLINATION    = 66.5129
RA_OF_ASC_NODE = 122.7962
ARG_OF_PERICENTER = 351.5632
MEAN_ANOMALY   = 8.4546

EPHEMERIS_TYPE = 0
CLASSIFICATION_TYPE = U
NORAD_CAT_ID   = 82458
ELEMENT_SET_NO = 999
REV_AT_EPOCH   = 61335
BSTAR          = .18758E-2
MEAN_MOTION_DOT = .4221E-4
MEAN_MOTION_DDOT = 0

CCSDS_OMM_VERS = 2.0
CREATION_DATE  = 
ORIGINATOR     = 

OBJECT_NAME    = UNKNOWN
OBJECT_ID      = 
CENTER_NAME    = EARTH
REF_FRAME      = TEME
TIME_SYSTEM    = UTC
MEAN_ELEMENT_THEORY = SGP/SGP4

EPOCH          = 2026-01-15T00:34:53.347584
MEAN_MOTION    = 13.55812849
ECCENTRICITY   = .0045596
INCLINATION    = 99.3537
RA_OF_ASC_NODE = 39.9342
ARG_OF_PERICENTER = 110.6642
MEAN_ANOMALY   = 249.9394

EPHEMERIS_TYPE = 0
CLASSIFICATION_TYPE = U
NORAD_CAT_ID   = 82484
ELEMENT_SET_NO = 999
REV_AT_EPOCH   = 59514
BSTAR          = .21965E-3
MEAN_MOTION_DOT = .113E-5
MEAN_MOTION_DDOT = 0

CCSDS_OMM_VERS = 2.0
CREATION_DATE  = 
ORIGINATOR     = 

OBJECT_NAME    = UNKNOWN
OBJECT_ID      = 
CENTER_NAME    = EARTH
REF_FRAME      = TEME
TIME_SYSTEM    = UTC
MEAN_ELEMENT_THEORY = SGP/SGP4

EPOCH          = 2026-01-15T05:52:15.753792
MEAN_MOTION    = 14.87402588
ECCENTRICITY   = .0002299
INCLINATION    = 74.0086
RA_OF_ASC_NODE = 315.0170
ARG_OF_PERICENTER = 90.3183
MEAN_ANOMALY   = 269.8261

EPHEMERIS_TYPE = 0
CLASSIFICATION_TYPE = U
NORAD_CAT_ID   = 82494
ELEMENT_SET_NO = 999
REV_AT_EPOCH   = 8994
BSTAR          = .13988E-2
MEAN_MOTION_DOT = .12642E-3
MEAN_MOTION_DDOT = 0

CCSDS_OMM_VERS = 2.0
CREATION_DATE  = 
ORIGINATOR     = 

OBJECT_NAME    = UNKNOWN
OBJECT_ID      = 
CENTER_NAME    = EARTH
REF_FRAME      = TEME
TIME_SYSTEM    = UTC
MEAN_ELEMENT_THEORY = SGP/SGP4

EPOCH          = 2026-01-04T02:45:53.699904
MEAN_MOTION    = 14.18687046
ECCENTRICITY   = .0113857
INCLINATION    = 70.9676
RA_OF_ASC_NODE = 316.4925
ARG_OF_PERICENTER = 81.1867
MEAN_ANOMALY   = 280.2130

EPHEMERIS_TYPE = 0
CLASSIFICATION_TYPE = U
NORAD_CAT_ID   = 82500
ELEMENT_SET_NO = 999
REV_AT_EPOCH   = 62212
BSTAR          = .31005E-2
MEAN_MOTION_DOT = .6822E-4
MEAN_MOTION_DDOT = 0

CCSDS_OMM_VERS = 2.0
CREATION_DATE  = 
ORIGINATOR     = 

OBJECT_NAME    = UNKNOWN
OBJECT_ID      = 
CENTER_NAME    = EARTH
REF_FRAME      = TEME
TIME_SYSTEM    = UTC
MEAN_ELEMENT_THEORY = SGP/SGP4

EPOCH          = 2026-01-12T15:57:51.080256
MEAN_MOTION    = 14.35239020
ECCENTRICITY   = .0135965
INCLINATION    = 73.2819
RA_OF_ASC_NODE = 122.4297
ARG_OF_PERICENTER = 249.7056
MEAN_ANOMALY   = 178.6290

EPHEMERIS_TYPE = 0
CLASSIFICATION_TYPE = U
NORAD_CAT_ID   = 82524
ELEMENT_SET_NO = 999
REV_AT_EPOCH   = 58147
BSTAR          = .21004E-2
MEAN_MOTION_DOT = .6647E-4
MEAN_MOTION_DDOT = 0

CCSDS_OMM_VERS = 2.0
CREATION_DATE  = 
ORIGINATOR     = 

OBJECT_NAME    = UNKNOWN
OBJECT_ID      = 
CENTER_NAME    = EARTH
REF_FRAME      = TEME
TIME_SYSTEM    = UTC
MEAN_ELEMENT_THEORY = SGP/SGP4

EPOCH          = 2026-01-14T01:33:11.155680
MEAN_MOTION    = 13.41142817
ECCENTRICITY   = .0239438
INCLINATION    = 99.7874
RA_OF_ASC_NODE = 101.4403
ARG_OF_PERICENTER = 161.9661
MEAN_ANOMALY   = 331.1755

EPHEMERIS_TYPE = 0
CLASSIFICATION_TYPE = U
NORAD_CAT_ID   = 82529
ELEMENT_SET_NO = 999
REV_AT_EPOCH   = 59407
BSTAR          = .43388E-3
MEAN_MOTION_DOT = .242E-5
MEAN_MOTION_DDOT = 0

CCSDS_OMM_VERS = 2.0
CREATION_DATE  = 
ORIGINATOR     = 

OBJECT_NAME    = UNKNOWN
OBJECT_ID      = 
CENTER_NAME    = EARTH
REF_FRAME      = TEME
TIME_SYSTEM    = UTC
MEAN_ELEMENT_THEORY = SGP/SGP4

EPOCH          = 2026-01-13T14:23:38.117472
MEAN_MOTION    = 13.90744611
ECCENTRICITY   = .0009499
INCLINATION    = 99.9934
RA_OF_ASC_NODE = 323.5162
ARG_OF_PERICENTER = 225.3386
MEAN_ANOMALY   = 313.4472

EPHEMERIS_TYPE = 0
CLASSIFICATION_TYPE = U
NORAD_CAT_ID   = 82560
ELEMENT_SET_NO = 999
REV_AT_EPOCH   = 61629
BSTAR          = .86811E-3
MEAN_MOTION_DOT = .1034E-4
MEAN_MOTION_DDOT = 0

