UNKNOWN                 
1 82381U          26014.58874690  .00011009  00000+0  13757-2 0  9997
2 82381  98.3973 245.9171 0011051  32.6793 327.5101 14.82482534515674
UNKNOWN                 
1 82402U          26015.30936506  .00003524  00000+0  25261-3 0  9994
2 82402  86.6663 141.1052 0008943  51.3639 308.8395 15.04022255459514
UNKNOWN                 
1 82432U          25365.11000664  .00004028  00000+0  85314-3 0  9995
2 82432  74.0071 305.5467 0054207 105.8778 254.8371 14.58640510485588
UNKNOWN                 
1 82448U          26015.48722636  .00003574  00000+0  25492-3 0  9991
2 82448  85.8722 181.2942 0009928 132.9104 227.2965 15.04193335442114
UNKNOWN                 
1 82453U          26014.35766837 -.00000009  00000+0  27000-3 0  9991
2 82453 102.1826 335.7082 0093392 146.7951 213.9018 12.39704445550105
UNKNOWN                 
1 82458U          26005.03648302  .00004221  00000+0  18758-2 0  9995
2 82458  66.5129 122.7962 0054053 351.5632   8.4546 14.23105341613358
UNKNOWN                 
1 82484U          26015.02422856  .00000113  00000+0  21965-3 0  9999
2 82484  99.3537  39.9342 0045596 110.6642 249.9394 13.55812849595143
UNKNOWN                 
1 82494U          26015.24462678  .00012642  00000+0  13988-2 0  9995
2 82494  74.0086 315.0170 0002299  90.3183 269.8261 14.87402588 89948
UNKNOWN                 
1 82500U          26004.11520486  .00006822  00000+0  31005-2 0  9992
2 82500  70.9676 316.4925 0113857  81.1867 280.2130 14.18687046622122
UNKNOWN                 
1 82524U          26012.66517454  .00006647  00000+0  21004-2 0  9991
2 82524  73.2819 122.4297 0135965 249.7056 178.6290 14.35239020581479
UNKNOWN                 
1 82529U          26014.06471245  .00000242  00000+0  43388-3 0  9994
2 82529  99.7874 101.4403 0239438 161.9661 331.1755 13.41142817594076
UNKNOWN                 
1 82560U          26013.59974673  .00001034  00000+0  86811-3 0  9997
2 82560  99.9934 323.5162 0009499 225.3386 313.4472 13.90744611616292
